GLOBALSTAR M094         
1 39074U 13005C   24360.13028566 -.00000092  00000+0  64149-4 0  9997
2 39074  51.9979 352.0687 0000048 208.0263 152.0601 12.62266374550418
GLOBALSTAR M096         
1 39075U 13005D   24359.82675760 -.00000092  00000+0  67505-4 0  9995
2 39075  52.0090  41.3713 0000460 165.9945 194.0934 12.62266021549275
GLOBALSTAR M078         
1 39076U 13005E   24360.43326250 -.00000087  00000+0  91926-4 0  9990
2 39076  51.9862 124.2665 0001634 135.2579 224.8420 12.62267873548182
GLOBALSTAR M095         
1 39077U 13005F   24360.46006681 -.00000090  00000+0  74417-4 0  9997
2 39077  51.9789 121.4707 0001205 142.5287 217.5664 12.62269842548196
GLOBALSTAR M087         
1 52888U 22064A   24360.43795971 -.00000089  00000+0  89366-4 0  9998
2 52888  51.9781 265.9958 0021285 355.6787   4.3905 12.88917908123041
